TEVEL2-7                
1 63238U 25052AE  26068.66113295  .00019244  00000+0  69668-3 0  9998
2 63238  97.4054 324.3041 0008105 124.6830 235.5175 15.28414096 54803
STARLINK-36053          
1 66875U 25281AD  26068.14495709  .00022639  00000+0  83004-3 0  9990
2 66875  43.0015 346.4233 0001185 290.7240  69.3484 15.27566230 16043
